{
  "type": "FeatureCollection",
  "features": [
    {
      "type": "Feature",
      "properties": {
        "norad_id": 31217,
        "name": "FENGYUN 1C DEB",
        "group": "fengyun-1c-debris",
        "lat": -16.09089824279347,
        "lon": -6.299467204899566,
        "alt_km": 909.8045585924783,
        "timestamp": "2025-12-09T04:51:47.774171+00:00",
        "meta_object_name": "FENGYUN 1C DEB",
        "meta_object_id": "1999-025BKX",
        "meta_epoch": "2025-12-08T12:00:02.793312",
        "meta_mean_motion": 14.17524016,
        "meta_eccentricity": 0.00994972,
        "meta_inclination": 98.6408,
        "meta_ra_of_asc_node": 350.5032,
        "meta_arg_of_pericenter": 172.1805,
        "meta_mean_anomaly": 188.095,
        "meta_ephemeris_type": 0,
        "meta_classification_type": "U",
        "meta_norad_cat_id": 31217,
        "meta_element_set_no": 999,
        "meta_rev_at_epoch": 96288,
        "meta_bstar": 0.00097729779,
        "meta_mean_motion_dot": 2.04e-05,
        "meta_mean_motion_ddot": 0,
        "tle_line1": "1 31217U 99025BKX 25342.50003233  .00002040  00000+0  97730-3 0  9995",
        "tle_line2": "2 31217  98.6408 350.5032 0099497 172.1805 188.0950 14.17524016962886"
      },
      "geometry": {
        "type": "Point",
        "coordinates": [
          -6.299467204899566,
          -16.09089824279347
        ]
      }
    },
    {
      "type": "Feature",
      "properties": {
        "norad_id": 31218,
        "name": "FENGYUN 1C DEB",
        "group": "fengyun-1c-debris",
        "lat": -79.15124404557716,
        "lon": -141.23199809898802,
        "alt_km": 668.0168241302499,
        "timestamp": "2025-12-09T04:51:47.774181+00:00",
        "meta_object_name": "FENGYUN 1C DEB",
        "meta_object_id": "1999-025BKY",
        "meta_epoch": "2025-12-08T12:59:16.832256",
        "meta_mean_motion": 14.72122214,
        "meta_eccentricity": 0.0011576,
        "meta_inclination": 98.8407,
        "meta_ra_of_asc_node": 92.3546,
        "meta_arg_of_pericenter": 49.3091,
        "meta_mean_anomaly": 310.9117,
        "meta_ephemeris_type": 0,
        "meta_classification_type": "U",
        "meta_norad_cat_id": 31218,
        "meta_element_set_no": 999,
        "meta_rev_at_epoch": 97021,
        "meta_bstar": 0.0054746,
        "meta_mean_motion_dot": 0.00034609,
        "meta_mean_motion_ddot": 0,
        "tle_line1": "1 31218U 99025BKY 25342.54116704  .00034609  00000+0  54746-2 0  9993",
        "tle_line2": "2 31218  98.8407  92.3546 0011576  49.3091 310.9117 14.72122214970215"
      },
      "geometry": {
        "type": "Point",
        "coordinates": [
          -141.23199809898802,
          -79.15124404557716
        ]
      }
    },
    {
      "type": "Feature",
      "properties": {
        "norad_id": 31219,
        "name": "FENGYUN 1C DEB",
        "group": "fengyun-1c-debris",
        "lat": 31.050076302237194,
        "lon": 178.58175231442698,
        "alt_km": 800.0497482384708,
        "timestamp": "2025-12-09T04:51:47.774191+00:00",
        "meta_object_name": "FENGYUN 1C DEB",
        "meta_object_id": "1999-025BKZ",
        "meta_epoch": "2025-12-08T11:10:29.742528",
        "meta_mean_motion": 14.13752894,
        "meta_eccentricity": 0.00789844,
        "meta_inclination": 99.2851,
        "meta_ra_of_asc_node": 352.1645,
        "meta_arg_of_pericenter": 189.1751,
        "meta_mean_anomaly": 170.7982,
        "meta_ephemeris_type": 0,
        "meta_classification_type": "U",
        "meta_norad_cat_id": 31219,
        "meta_element_set_no": 999,
        "meta_rev_at_epoch": 95509,
        "meta_bstar": 0.0022347754,
        "meta_mean_motion_dot": 4.308e-05,
        "meta_mean_motion_ddot": 0,
        "tle_line1": "1 31219U 99025BKZ 25342.46562202  .00004308  00000+0  22348-2 0  9999",
        "tle_line2": "2 31219  99.2851 352.1645 0078984 189.1751 170.7982 14.13752894955092"
      },
      "geometry": {
        "type": "Point",
        "coordinates": [
          178.58175231442698,
          31.050076302237194
        ]
      }
    },
    {
      "type": "Feature",
      "properties": {
        "norad_id": 31222,
        "name": "FENGYUN 1C DEB",
        "group": "fengyun-1c-debris",
        "lat": -13.655801293656504,
        "lon": 54.92489163333757,
        "alt_km": 586.452488560727,
        "timestamp": "2025-12-09T04:51:47.774204+00:00",
        "meta_object_name": "FENGYUN 1C DEB",
        "meta_object_id": "1999-025BLC",
        "meta_epoch": "2025-12-08T03:16:10.885440",
        "meta_mean_motion": 14.97675307,
        "meta_eccentricity": 0.01705839,
        "meta_inclination": 98.6119,
        "meta_ra_of_asc_node": 51.6392,
        "meta_arg_of_pericenter": 84.5584,
        "meta_mean_anomaly": 277.5067,
        "meta_ephemeris_type": 0,
        "meta_classification_type": "U",
        "meta_norad_cat_id": 31222,
        "meta_element_set_no": 999,
        "meta_rev_at_epoch": 99915,
        "meta_bstar": 0.00077172109,
        "meta_mean_motion_dot": 0.00012141,
        "meta_mean_motion_ddot": 0,
        "tle_line1": "1 31222U 99025BLC 25342.13623710  .00012141  00000+0  77172-3 0  9999",
        "tle_line2": "2 31222  98.6119  51.6392 0170583  84.5584 277.5067 14.97675307999156"
      },
      "geometry": {
        "type": "Point",
        "coordinates": [
          54.92489163333757,
          -13.655801293656504
        ]
      }
    },
    {
      "type": "Feature",
      "properties": {
        "norad_id": 31223,
        "name": "FENGYUN 1C DEB",
        "group": "fengyun-1c-debris",
        "lat": -11.449967934010683,
        "lon": 47.85805988361898,
        "alt_km": 1115.2587750645434,
        "timestamp": "2025-12-09T04:51:47.774215+00:00",
        "meta_object_name": "FENGYUN 1C DEB",
        "meta_object_id": "1999-025BLD",
        "meta_epoch": "2025-12-08T15:45:00.855360",
        "meta_mean_motion": 13.77212158,
        "meta_eccentricity": 0.0241965,
        "meta_inclination": 99.0051,
        "meta_ra_of_asc_node": 229.1805,
        "meta_arg_of_pericenter": 51.571,
        "meta_mean_anomaly": 310.6895,
        "meta_ephemeris_type": 0,
        "meta_classification_type": "U",
        "meta_norad_cat_id": 31223,
        "meta_element_set_no": 999,
        "meta_rev_at_epoch": 92672,
        "meta_bstar": 0.003382,
        "meta_mean_motion_dot": 4.12e-05,
        "meta_mean_motion_ddot": 0,
        "tle_line1": "1 31223U 99025BLD 25342.65625990  .00004120  00000+0  33820-2 0  9998",
        "tle_line2": "2 31223  99.0051 229.1805 0241965  51.5710 310.6895 13.77212158926725"
      },
      "geometry": {
        "type": "Point",
        "coordinates": [
          47.85805988361898,
          -11.449967934010683
        ]
      }
    },
    {
      "type": "Feature",
      "properties": {
        "norad_id": 31224,
        "name": "FENGYUN 1C DEB",
        "group": "fengyun-1c-debris",
        "lat": 75.84792247473109,
        "lon": -169.04040919876144,
        "alt_km": 751.4819527578111,
        "timestamp": "2025-12-09T04:51:47.774224+00:00",
        "meta_object_name": "FENGYUN 1C DEB",
        "meta_object_id": "1999-025BLE",
        "meta_epoch": "2025-12-07T05:24:06.867936",
        "meta_mean_motion": 14.28881555,
        "meta_eccentricity": 0.01576901,
        "meta_inclination": 98.3695,
        "meta_ra_of_asc_node": 333.3388,
        "meta_arg_of_pericenter": 179.1537,
        "meta_mean_anomaly": 197.3036,
        "meta_ephemeris_type": 0,
        "meta_classification_type": "U",
        "meta_norad_cat_id": 31224,
        "meta_element_set_no": 999,
        "meta_rev_at_epoch": 69172,
        "meta_bstar": 0.00051563663,
        "meta_mean_motion_dot": 1.444e-05,
        "meta_mean_motion_ddot": 0,
        "tle_line1": "1 31224U 99025BLE 25341.22507949  .00001444  00000+0  51564-3 0  9996",
        "tle_line2": "2 31224  98.3695 333.3388 0157690 179.1537 197.3036 14.28881555691727"
      },
      "geometry": {
        "type": "Point",
        "coordinates": [
          -169.04040919876144,
          75.84792247473109
        ]
      }
    },
    {
      "type": "Feature",
      "properties": {
        "norad_id": 31225,
        "name": "FENGYUN 1C DEB",
        "group": "fengyun-1c-debris",
        "lat": -51.59670555884647,
        "lon": 67.90472277216028,
        "alt_km": 801.9480361240339,
        "timestamp": "2025-12-09T04:51:47.774234+00:00",
        "meta_object_name": "FENGYUN 1C DEB",
        "meta_object_id": "1999-025BLF",
        "meta_epoch": "2025-12-07T04:07:31.353024",
        "meta_mean_motion": 14.17816325,
        "meta_eccentricity": 0.00882198,
        "meta_inclination": 98.9898,
        "meta_ra_of_asc_node": 54.33,
        "meta_arg_of_pericenter": 7.4861,
        "meta_mean_anomaly": 21.4134,
        "meta_ephemeris_type": 0,
        "meta_classification_type": "U",
        "meta_norad_cat_id": 31225,
        "meta_element_set_no": 999,
        "meta_rev_at_epoch": 95743,
        "meta_bstar": 0.0019479029,
        "meta_mean_motion_dot": 4.087e-05,
        "meta_mean_motion_ddot": 0,
        "tle_line1": "1 31225U 99025BLF 25341.17189066  .00004087  00000+0  19479-2 0  9991",
        "tle_line2": "2 31225  98.9898  54.3300 0088219   7.4861  21.4134 14.17816325957436"
      },
      "geometry": {
        "type": "Point",
        "coordinates": [
          67.90472277216028,
          -51.59670555884647
        ]
      }
    }
  ]
}